COSMOS 2277 (GLONASS)
1 23045U 94021C   01247.32563887 +.00000046 +00000-0 +00000-0 0 00920
2 23045 063.7982 256.9508 0013985 019.1550 340.9344 02.13102270057606
COSMOS 2287 (GLONASS)
1 23203U 94050A   01247.00316460  .00000023  00000-0  00000+0 0  9356
2 23203  64.8212 140.3077 0005645 126.7764 233.3539  2.13100428 54996
COSMOS 2288 (GLONASS)
1 23204U 94050B   01248.63608089 +.00000027 +00000-0 +00000-0 0 00589
2 23204 064.8070 140.2431 0013569 350.7481 009.3085 02.13102179055028
COSMOS 2289 (GLONASS)
1 23205U 94050C   01248.04967441 +.00000026 +00000-0 +00000-0 0 00449
2 23205 064.8172 140.2685 0001594 001.8772 358.2050 02.13102317055016
COSMOS 2294 (GLONASS)
1 23396U 94076A   01248.36973167 -.00000052 +00000-0 +00000-0 0 09398
2 23396 065.8437 019.9549 0028495 189.1384 170.8163 02.13102327052865
COSMOS 2295 (GLONASS)
1 23397U 94076B   01243.39641419 -.00000074  00000-0  00000+0 0  9763
2 23397  65.8314  20.1048 0010947 303.6834  56.2243  2.13100651 52756
COSMOS 2296 (GLONASS)
1 23398U 94076C   01248.43862263 -.00000051 +00000-0 +00000-0 0 09874
2 23398 065.8216 019.8867 0002823 269.7612 090.2163 02.13100972052870
COSMOS 2307 (GLONASS)
1 23511U 95009A   01247.88658702  .00000047  00000-0  00000+0 0  8936
2 23511  63.8382 257.2753 0011113 211.3338 148.6434  2.13105599 50586
COSMOS 2308 (GLONASS)
1 23512U 95009B   01248.04830112  .00000048  00000-0  10000-3 0  9637
2 23512  63.8296 257.2591 0006465 309.5544  50.4102  2.13099440 50583
COSMOS 2309 (GLONASS)
1 23513U 95009C   01248.20685902 +.00000049 +00000-0 +00000-0 0 08457
2 23513 063.8319 257.2966 0021936 199.2475 160.6996 02.13052404050587
COSMOS 2316 (GLONASS)
1 23620U 95037A   01248.57414368  .00000027  00000-0  00000+0 0  8324
2 23620  64.8715 140.2476 0014984 173.9614 186.1473  2.13102669 47637
COSMOS 2317 (GLONASS)
1 23621U 95037B   01248.80110971  .00000027  00000-0  10000-3 0  9881
2 23621  64.8782 140.2702 0016802 181.9711 214.8510  2.13101205 47638
COSMOS 2318 (GLONASS)
1 23622U 95037C   01246.93326366 +.00000023 +00000-0 +10000-3 0 09630
2 23622 064.8747 140.3094 0031438 166.9718 193.1864 02.13102048047599
COSMOS 2325 (GLONASS)
1 23734U 95068A   01249.11890339  .00000027  00000-0  10000-3 0  1363
2 23734  64.8876 140.1608 0015390 317.2458 186.4529  2.13102232 44603
COSMOS 2324 (GLONASS)
1 23735U 95068B   01248.61300164 +.00000027 +00000-0 +10000-3 0 09852
2 23735 064.8797 140.1533 0005172 227.7319 158.9009 02.13102444044591
COSMOS 2323 (GLONASS)
1 23736U 95068C   01245.87866263 +.00000015 +00000-0 +00000-0 0 09207
2 23736 064.8622 140.2394 0007877 205.5802 154.4575 02.13102398044531
COSMOS 2362 (GLONASS)
1 25593U 98077A   01248.90978392 -.00000051  00000-0  10000-3 0  7536
2 25593  65.1435  19.1691 0012545  79.1688  66.8303  2.13101981 20872
COSMOS 2363 (GLONASS)
1 25594U 98077B   01248.60491108 -.00000052 +00000-0 +10000-3 0 07967
2 25594 065.1351 019.1818 0012112 063.5947 255.4728 02.13102389020865
COSMOS 2364 (GLONASS)
1 25595U 98077C   01248.60339957 -.00000052  00000-0  10000-3 0  7499
2 25595  65.1513  19.1692 0004593 121.5752 241.9400  2.13102949 20879


COSMOS 2074
1 20577U 90036A   01248.91477840 +.00000073 +00000-0 +62063-4 0 05913
2 20577 082.9440 324.5273 0025318 234.4240 125.4554 13.74181462570717
COSMOS 2142
1 21230U 91029A   01249.33185810  .00000103  00000-0  95211-4 0  8663
2 21230  82.9493  67.9054 0037403 175.4572 184.6929 13.72690925520723
COSMOS 2173
1 21796U 91081A   01248.94007128 +.00000088 +00000-0 +75009-4 0 01881
2 21796 082.9541 026.9595 0051110 053.0846 307.4976 13.75004451490645
COSMOS 2180
1 21875U 92008A   01248.95822675 +.00000077 +00000-0 +67374-4 0 01673
2 21875 082.9206 085.1270 0037314 313.4813 046.3241 13.73319741478587
COSMOS 2184
1 21937U 92020A   01248.75702521 +.00000035 +00000-0 +20731-4 0 02009
2 21937 082.9332 327.0086 0034551 109.7105 250.7783 13.72743886470594
COSMOS 2218
1 22207U 92073A   01248.85271907  .00000056  00000-0  44457-4 0  9694
2 22207  82.9225 354.7970 0031919 303.9306  55.8815 13.72489937443483
COSMOS 2233
1 22487U 93008A   01248.93705458 +.00000031 +00000-0 +16124-4 0 09913
2 22487 082.9392 052.5304 0037035 191.1919 168.8419 13.75316736426007
COSMOS 2239
1 22590U 93020A   01248.92557158  .00000081  00000-0  69143-4 0   200
2 22590  82.9290  18.9210 0023976 350.0497  10.0180 13.74963529423071
COSMOS 2266
1 22888U 93070A   01248.68550176 +.00000015 +00000-0 +00000-0 0 07916
2 22888 082.9498 295.8527 0046976 231.3959 128.3014 13.74453292390687
COSMOS 2279
1 23092U 94024A   01248.93754592 +.00000034 +00000-0 +20256-4 0 07123
2 23092 082.9460 084.4488 0035480 346.1888 013.8296 13.75212042369667
COSMOS 2310
1 23526U 95012A   01248.77923716 +.00000015 +00000-0 +00000-0 0 06298
2 23526 082.9474 333.7209 0020794 202.2145 157.8110 13.71352301323376
COSMOS 2327
1 23773U 96004A   01249.24194402  .00000136  00000-0  12852-3 0  5215
2 23773  82.9828 303.1018 0047279 303.7293  55.9360 13.73956847282781
COSMOS 2334
1 24304U 96052A   01248.65058776 +.00000245 +00000-0 +24809-3 0 05908
2 24304 082.9305 295.3474 0028343 239.6776 120.1570 13.73095264250526
COSMOS 2336
1 24677U 96071A   01248.93196591 +.00000015 +00000-0 +00000-0 0 04257
2 24677 082.9393 031.8089 0023109 169.9600 190.2021 13.71229350235780
COSMOS 2341
1 24772U 97017A   01248.71223850 +.00000074 +00000-0 +65575-4 0 04357
2 24772 082.9241 327.3450 0025975 140.1232 220.1839 13.71202946219546


COSMOS 1791
1 17066U 86086A   01248.71214359 +.00000073 +00000-0 +60626-4 0 01665
2 17066 082.9467 128.7631 0040478 320.0311 039.7866 13.75245077743878
NADEZHDA 2
1 20508U 90017A   01248.57205604 +.00000094 +00000-0 +83012-4 0 05285
2 20508 082.9521 276.6871 0045808 097.7473 262.8889 13.73742000577608
COSMOS 2123
1 21089U 91007A   01248.95703322 +.00000070 +00000-0 +58150-4 0 03638
2 21089 082.9202 215.0655 0028824 327.8537 032.0853 13.74280754530907
NADEZHDA 3
1 21152U 91019A   01248.86490928 +.00000040 +00000-0 +26136-4 0 02294
2 21152 082.9270 173.3388 0043639 078.3709 282.2340 13.73762561525502
COSMOS 2181
1 21902U 92012A   01248.73273553 +.00000080 +00000-0 +71439-4 0 01930
2 21902 082.9447 140.9421 0029513 014.8262 345.3747 13.72028280475332
COSMOS 2230
1 22307U 93001A   01248.78186219 +.00000078 +00000-0 +68012-4 0 00104
2 22307 082.9416 136.4531 0025328 141.1151 219.1832 13.73008788425061
NADEZHDA 4
1 23179U 94041A   01248.97249748 +.00000104 +00000-0 +91344-4 0 06543
2 23179 082.9436 263.1771 0035305 195.0609 164.9502 13.75908988358976
TSIKADA
1 23463U 95002A   01248.97577661 +.00000086 +00000-0 +76952-4 0 06306
2 23463 082.9247 224.9617 0040880 066.7957 293.7487 13.72056599331377
COSMOS 2315
1 23603U 95032A   01248.74024938 +.00000107 +00000-0 +10000-3 0 06017
2 23603 082.9021 126.6181 0032015 143.7864 216.5465 13.72413215309221
